{"type":"FeatureCollection","features":[{"type":"Feature","id":"nea-17942","geometry":{"type":"Point","coordinates":[103.835091,1.304047]},"properties":{"name":"The Paragon","details":"Side of building","source":"nea","approx":false,"photo":"https://www.nea.gov.sg/images/default-source/our-serivces/smoking-prohibition/dsa/the-paragon","updated":"2025-03-05"}},{"type":"Feature","id":"nea-17943","geometry":{"type":"Point","coordinates":[103.830042,1.304513]},"properties":{"name":"Wheelock Place","details":"Back of building","source":"nea","approx":false,"photo":"https://www.nea.gov.sg/images/default-source/our-serivces/smoking-prohibition/dsa/wheelock-place","updated":"2025-03-05"}},{"type":"Feature","id":"nea-17944","geometry":{"type":"Point","coordinates":[103.8347,1.307025]},"properties":{"name":"York Hotel","details":"Back of building","source":"nea","approx":false,"photo":"https://www.nea.gov.sg/images/default-source/our-serivces/smoking-prohibition/dsa/york-hotel-(2)","updated":"2025-03-05"}},{"type":"Feature","id":"nea-17921","geometry":{"type":"Point","coordinates":[103.83544,1.307976]},"properties":{"name":"Vibe Hotel Singapore Orchard","details":"Front of building","source":"nea","approx":false,"photo":"https://www.nea.gov.sg/images/default-source/our-serivces/smoking-prohibition/dsa/vibe-hotel-singapore-orchard-dsa","updated":"2026-09-17"}},{"type":"Feature","id":"nea-17922","geometry":{"type":"Point","coordinates":[103.834382,1.309436]},"properties":{"name":"Goodwood Park Hotel","details":"Front of building","source":"nea","approx":false,"photo":"https://www.nea.gov.sg/images/default-source/our-serivces/smoking-prohibition/dsa/goodwood-park-hotel-1","updated":"2025-03-05"}},{"type":"Feature","id":"nea-17923","geometry":{"type":"Point","coordinates":[103.841308,1.302302]},"properties":{"name":"Holiday Inn Singapore Orchard City Centre","details":"Back of building","source":"nea","approx":false,"photo":"https://www.nea.gov.sg/images/default-source/our-serivces/smoking-prohibition/dsa/holiday-inn-orchard-city-centre-1","updated":"2025-03-05"}},{"type":"Feature","id":"nea-17924","geometry":{"type":"Point","coordinates":[103.833721,1.30332]},"properties":{"name":"Ngee Ann City","details":"Side of building","source":"nea","approx":false,"photo":"https://www.nea.gov.sg/images/default-source/our-serivces/smoking-prohibition/dsa/nac2","updated":"2025-03-05"}},{"type":"Feature","id":"nea-17925","geometry":{"type":"Point","coordinates":[103.835595,1.302329]},"properties":{"name":"Ngee Ann City","details":"Side of building","source":"nea","approx":false,"photo":"https://www.nea.gov.sg/images/default-source/our-serivces/smoking-prohibition/dsa/nac","updated":"2025-03-05"}},{"type":"Feature","id":"nea-17926","geometry":{"type":"Point","coordinates":[103.834019,1.306094]},"properties":{"name":"Grand Hyatt Singapore","details":"Terrace Wing level 1","source":"nea","approx":false,"photo":"https://www.nea.gov.sg/images/default-source/our-serivces/smoking-prohibition/dsa/grand-hyatt-dsa-terrace-wing","updated":"2025-11-03"}},{"type":"Feature","id":"nea-17927","geometry":{"type":"Point","coordinates":[103.833638,1.306013]},"properties":{"name":"Grand Hyatt Singapore","details":"Back of building","source":"nea","approx":false,"photo":"https://www.nea.gov.sg/images/default-source/our-serivces/smoking-prohibition/dsa/grand-hyatt-dsa-NutmegRoad","updated":"2025-11-03"}},{"type":"Feature","id":"nea-17928","geometry":{"type":"Point","coordinates":[103.833157,1.308711]},"properties":{"name":"The Tanglin Club","details":"Beside squash complex","source":"nea","approx":false,"photo":"https://www.nea.gov.sg/images/default-source/our-serivces/smoking-prohibition/dsa/the-tanglin-club-beside-squash-complex-1","updated":"2025-11-03"}},{"type":"Feature","id":"nea-17929","geometry":{"type":"Point","coordinates":[103.829541,1.307313]},"properties":{"name":"Orchard Towers","details":"Side of building","source":"nea","approx":false,"photo":"https://www.nea.gov.sg/images/default-source/our-serivces/smoking-prohibition/dsa/orchard-towers-2","updated":"2025-03-05"}},{"type":"Feature","id":"nea-17930","geometry":{"type":"Point","coordinates":[103.828993,1.307116]},"properties":{"name":"Orchard Towers","details":"Side of building","source":"nea","approx":false,"photo":"https://www.nea.gov.sg/images/default-source/our-serivces/smoking-prohibition/dsa/orchardtowers","updated":"2025-03-05"}},{"type":"Feature","id":"nea-17931","geometry":{"type":"Point","coordinates":[103.824473,1.304175]},"properties":{"name":"Conrad Singapore Orchard","details":"Front of building","source":"nea","approx":false,"photo":"https://www.nea.gov.sg/images/default-source/our-serivces/smoking-prohibition/dsa/the-regent-singapore-2","updated":"2025-10-10"}},{"type":"Feature","id":"nea-17932","geometry":{"type":"Point","coordinates":[103.824859,1.304171]},"properties":{"name":"Conrad Singapore Orchard","details":"Side of building","source":"nea","approx":false,"photo":"https://www.nea.gov.sg/images/default-source/our-serivces/smoking-prohibition/dsa/the-regent-singapore-1","updated":"2025-10-10"}},{"type":"Feature","id":"nea-17933","geometry":{"type":"Point","coordinates":[103.844949,1.299687]},"properties":{"name":"Plaza Singapura","details":"Front of building","source":"nea","approx":false,"photo":"https://www.nea.gov.sg/images/default-source/our-serivces/smoking-prohibition/dsa/plaza-sing","updated":"2025-03-05"}},{"type":"Feature","id":"nea-17934","geometry":{"type":"Point","coordinates":[103.834588,1.304448]},"properties":{"name":"Nutmeg Road","details":"Behind Lucky Plaza","source":"nea","approx":false,"photo":"https://www.nea.gov.sg/images/default-source/our-serivces/smoking-prohibition/dsa/nutmeg-road-dsa","updated":"2025-03-05"}},{"type":"Feature","id":"nea-17935","geometry":{"type":"Point","coordinates":[103.823619,1.304307]},"properties":{"name":"Jen Singapore Tanglin","details":"Side of building","source":"nea","approx":false,"photo":"https://www.nea.gov.sg/images/default-source/our-serivces/smoking-prohibition/dsa/hotel-jen-tanglin","updated":"2025-03-05"}},{"type":"Feature","id":"nea-17936","geometry":{"type":"Point","coordinates":[103.83199,1.305555]},"properties":{"name":"Shaw House","details":"Front of building","source":"nea","approx":false,"photo":"https://www.nea.gov.sg//images/default-source/our-serivces/smoking-prohibition/dsa/shaw-house-(3)","updated":"2025-03-05"}},{"type":"Feature","id":"nea-17937","geometry":{"type":"Point","coordinates":[103.835086,1.302518]},"properties":{"name":"Ngee Ann City","details":"Tower A Level 7 open carpark","source":"nea","approx":false,"photo":"https://www.nea.gov.sg/images/default-source/our-serivces/smoking-prohibition/dsa/ngee-ann-city-tower-a-dsa","updated":"2025-03-05"}},{"type":"Feature","id":"nea-17938","geometry":{"type":"Point","coordinates":[103.833672,1.305032]},"properties":{"name":"Tang Plaza","details":"Side of building","source":"nea","approx":false,"photo":"https://www.nea.gov.sg/images/default-source/our-serivces/smoking-prohibition/dsa/tang-plaza","updated":"2025-03-05"}},{"type":"Feature","id":"nea-17939","geometry":{"type":"Point","coordinates":[103.823758,1.305146]},"properties":{"name":"Tanglin Mall","details":"Front of building","source":"nea","approx":false,"photo":"https://www.nea.gov.sg/images/default-source/our-serivces/smoking-prohibition/dsa/tanglin-mall","updated":"2025-03-05"}},{"type":"Feature","id":"nea-17940","geometry":{"type":"Point","coordinates":[103.8249,1.305103]},"properties":{"name":"Tanglin Place","details":"Back of building","source":"nea","approx":false,"photo":"https://www.nea.gov.sg/images/default-source/our-serivces/smoking-prohibition/dsa/tanglin-place","updated":"2025-03-05"}},{"type":"Feature","id":"nea-17941","geometry":{"type":"Point","coordinates":[103.840247,1.302489]},"properties":{"name":"The Centrepoint","details":"Back of building","source":"nea","approx":false,"photo":"https://www.nea.gov.sg/images/default-source/our-serivces/smoking-prohibition/dsa/thecentrepoint","updated":"2025-03-05"}},{"type":"Feature","id":"nea-17945","geometry":{"type":"Point","coordinates":[103.840661,1.300297]},"properties":{"name":"Killiney Post Office","details":"Side of building","source":"nea","approx":false,"photo":"https://www.nea.gov.sg/images/default-source/our-serivces/smoking-prohibition/dsa/killney-post-office","updated":"2025-03-05"}},{"type":"Feature","id":"nea-17946","geometry":{"type":"Point","coordinates":[103.828661,1.30556]},"properties":{"name":"Four Seasons Hotel","details":"Back of building","source":"nea","approx":false,"photo":"https://www.nea.gov.sg/images/default-source/our-serivces/smoking-prohibition/dsa/four-seasons-hotel-singapore-(2)","updated":"2025-03-05"}},{"type":"Feature","id":"nea-17947","geometry":{"type":"Point","coordinates":[103.82838,1.304899]},"properties":{"name":"Four Seasons Hotel","details":"Front of building","source":"nea","approx":false,"photo":"https://www.nea.gov.sg/images/default-source/our-serivces/smoking-prohibition/dsa/four-seasons-hotel-singapore-2","updated":"2025-03-05"}},{"type":"Feature","id":"nea-17948","geometry":{"type":"Point","coordinates":[103.834162,1.308752]},"properties":{"name":"Goodwood Park Hotel","details":"Side of building","source":"nea","approx":false,"photo":"https://www.nea.gov.sg/images/default-source/our-serivces/smoking-prohibition/dsa/goodwood-park-hotel-2","updated":"2025-03-05"}},{"type":"Feature","id":"nea-17949","geometry":{"type":"Point","coordinates":[103.84085,1.301037]},"properties":{"name":"Orchard Plaza","details":"Side of building","source":"nea","approx":false,"photo":"https://www.nea.gov.sg/images/default-source/our-serivces/smoking-prohibition/dsa/orchard-plaza","updated":"2025-03-05"}},{"type":"Feature","id":"nea-17950","geometry":{"type":"Point","coordinates":[103.830259,1.305253]},"properties":{"name":"Far East Shopping Centre","details":"Side of building","source":"nea","approx":false,"photo":"https://www.nea.gov.sg/images/default-source/our-serivces/smoking-prohibition/dsa/dsa_far-east-shopping-centre","updated":"2025-03-05"}},{"type":"Feature","id":"nea-17951","geometry":{"type":"Point","coordinates":[103.82882,1.30566]},"properties":{"name":"Forum The Shopping Mall","details":"Back of building","source":"nea","approx":false,"photo":"https://www.nea.gov.sg/images/default-source/our-serivces/smoking-prohibition/dsa/forum-the-shopping-mall-dsa","updated":"2025-03-05"}},{"type":"Feature","id":"nea-17952","geometry":{"type":"Point","coordinates":[103.824251,1.304452]},"properties":{"name":"Jen Singapore Tanglin","details":"Back of building","source":"nea","approx":false,"photo":"https://www.nea.gov.sg/images/default-source/our-serivces/smoking-prohibition/dsa/hotel-jen-tanglin-2","updated":"2025-03-05"}},{"type":"Feature","id":"nea-17953","geometry":{"type":"Point","coordinates":[103.835817,1.302163]},"properties":{"name":"Mandarin Gallery","details":"Side of building","source":"nea","approx":false,"photo":"https://www.nea.gov.sg/images/default-source/our-serivces/smoking-prohibition/dsa/mandarin-gallery-(1)","updated":"2025-03-05"}},{"type":"Feature","id":"nea-17954","geometry":{"type":"Point","coordinates":[103.835671,1.307296]},"properties":{"name":"York Hotel","details":"Front of building","source":"nea","approx":false,"photo":"https://www.nea.gov.sg/images/default-source/our-serivces/smoking-prohibition/dsa/york-hotel_front_8-03-2023","updated":"2026-03-17"}},{"type":"Feature","id":"nea-17955","geometry":{"type":"Point","coordinates":[103.831351,1.306224]},"properties":{"name":"Shaw House","details":"Back of building","source":"nea","approx":false,"photo":"https://www.nea.gov.sg/images/default-source/our-serivces/smoking-prohibition/dsa/shaw-house-dsa-back","updated":"2026-03-17"}},{"type":"Feature","id":"nea-17956","geometry":{"type":"Point","coordinates":[103.83346,1.30464]},"properties":{"name":"Lucky Plaza","details":"Side of building","source":"nea","approx":false,"photo":"https://www.nea.gov.sg/images/default-source/our-serivces/smoking-prohibition/dsa/lucky-plaza-dsa","updated":"2025-03-05"}},{"type":"Feature","id":"nea-17957","geometry":{"type":"Point","coordinates":[103.834796,1.308132]},"properties":{"name":"Goodwood Park Hotel","details":"Back of building","source":"nea","approx":false,"photo":"https://www.nea.gov.sg/images/default-source/our-serivces/smoking-prohibition/dsa/goodwood-park-hotel-3","updated":"2025-03-05"}},{"type":"Feature","id":"nea-17958","geometry":{"type":"Point","coordinates":[103.829123,1.305786]},"properties":{"name":"Voco Orchard Singapore","details":"Back of building","source":"nea","approx":false,"photo":"https://www.nea.gov.sg/images/default-source/our-serivces/smoking-prohibition/dsa/hilton-singapore","updated":"2025-03-05"}},{"type":"Feature","id":"nea-17959","geometry":{"type":"Point","coordinates":[103.841175,1.302432]},"properties":{"name":"Holiday Inn Singapore Orchard City Centre","details":"Back of building","source":"nea","approx":false,"photo":"https://www.nea.gov.sg/images/default-source/our-serivces/smoking-prohibition/dsa/holiday-inn-orchard-city-centre-2","updated":"2025-03-05"}},{"type":"Feature","id":"nea-17960","geometry":{"type":"Point","coordinates":[103.836084,1.30159]},"properties":{"name":"Hilton Orchard Singapore","details":"Back of building","source":"nea","approx":false,"photo":"https://www.nea.gov.sg/images/default-source/our-serivces/smoking-prohibition/dsa/mandarin-gallery-(2)","updated":"2025-03-05"}},{"type":"Feature","id":"nea-17961","geometry":{"type":"Point","coordinates":[103.829755,1.305956]},"properties":{"name":"Voco Orchard Singapore","details":"Front of building","source":"nea","approx":false,"photo":"https://www.nea.gov.sg/images/default-source/our-serivces/smoking-prohibition/dsa/hilton-singapore-(1)","updated":"2025-03-05"}},{"type":"Feature","id":"nea-17962","geometry":{"type":"Point","coordinates":[103.825787,1.305753]},"properties":{"name":"St. Regis Singapore","details":"Front of building","source":"nea","approx":false,"photo":"https://www.nea.gov.sg/images/default-source/our-serivces/smoking-prohibition/dsa/stregis","updated":"2025-03-05"}},{"type":"Feature","id":"nea-17963","geometry":{"type":"Point","coordinates":[103.833175,1.305462]},"properties":{"name":"Tang Plaza","details":"Side of building","source":"nea","approx":false,"photo":"https://www.nea.gov.sg/images/default-source/our-serivces/smoking-prohibition/dsa/tang-plaza-dsa-side-of-building-to-scotts-square","updated":"2025-03-05"}},{"type":"Feature","id":"nea-17964","geometry":{"type":"Point","coordinates":[103.833961,1.303099]},"properties":{"name":"Ngee Ann City","details":"Tower B Level 7 open carpark","source":"nea","approx":false,"photo":"https://www.nea.gov.sg/images/default-source/our-serivces/smoking-prohibition/dsa/ngee-ann-city-tower-b-dsa","updated":"2025-03-05"}},{"type":"Feature","id":"nea-17965","geometry":{"type":"Point","coordinates":[103.826783,1.306067]},"properties":{"name":"Artyzen Hotel","details":"Back of building","source":"nea","approx":false,"photo":"https://www.nea.gov.sg/images/default-source/our-serivces/smoking-prohibition/dsa/artyzen-hotel-dsa","updated":"2025-03-05"}},{"type":"Feature","id":"nea-17966","geometry":{"type":"Point","coordinates":[103.838423,1.299935]},"properties":{"name":"Behind Somerset Exit A","details":"Open space behind Somerset MRT exit A","source":"nea","approx":false,"photo":"https://www.nea.gov.sg/images/default-source/our-serivces/smoking-prohibition/dsa/somerset-dsa","updated":"2025-03-05"}},{"type":"Feature","id":"nea-17967","geometry":{"type":"Point","coordinates":[103.836371,1.30177]},"properties":{"name":"Cathay Cineleisure Orchard","details":"Side of building","source":"nea","approx":false,"photo":"https://www.nea.gov.sg/images/default-source/our-serivces/smoking-prohibition/dsa/cineleisure-dsa-side-of-building","updated":"2025-03-05"}},{"type":"Feature","id":"nea-17968","geometry":{"type":"Point","coordinates":[103.836216,1.301681]},"properties":{"name":"Cathay Cineleisure Orchard","details":"Back of building","source":"nea","approx":false,"photo":"https://www.nea.gov.sg/images/default-source/our-serivces/smoking-prohibition/dsa/cathay-cineleisure-orchard-3","updated":"2025-03-05"}},{"type":"Feature","id":"nea-17969","geometry":{"type":"Point","coordinates":[103.841552,1.300826]},"properties":{"name":"Concorde Hotel And Shopping Mall","details":"Along Kramat Lane","source":"nea","approx":false,"photo":"https://www.nea.gov.sg/images/default-source/our-serivces/smoking-prohibition/dsa/concorde-hotel3","updated":"2025-03-05"}},{"type":"Feature","id":"nea-17970","geometry":{"type":"Point","coordinates":[103.842935,1.301172]},"properties":{"name":"Concorde Hotel And Shopping Mall","details":"Back of building","source":"nea","approx":false,"photo":"https://www.nea.gov.sg/images/default-source/our-serivces/smoking-prohibition/dsa/dsa_concorde-hotel-and-shopping-mall-2","updated":"2025-03-05"}},{"type":"Feature","id":"nea-17971","geometry":{"type":"Point","coordinates":[103.840134,1.301679]},"properties":{"name":"Cuppage Terrace","details":"Side of building","source":"nea","approx":false,"photo":"https://www.nea.gov.sg/images/default-source/our-serivces/smoking-prohibition/dsa/cuppage-terrace","updated":"2025-03-05"}},{"type":"Feature","id":"nea-17972","geometry":{"type":"Point","coordinates":[103.833083,1.306919]},"properties":{"name":"Far East Plaza","details":"Front of building","source":"nea","approx":false,"photo":"https://www.nea.gov.sg/images/default-source/our-serivces/smoking-prohibition/dsa/FEP","updated":"2025-03-05"}},{"type":"Feature","id":"cag-t1-transit-2-departure-transit-hall-east-near-gate-c16","geometry":{"type":"Point","coordinates":[103.990167,1.364685]},"properties":{"name":"Changi Airport T1","details":"Departure Transit Hall East — near Gate C16","source":"changi","approx":true,"approxRadius":80,"level":"2","airside":true,"url":"https://www.changiairport.com/en/at-changi/facilities-and-services-directory/smoking-areas.html","updated":"2026-09-24"}},{"type":"Feature","id":"cag-t1-transit-2-departure-transit-hall-east-near-gate-d36","geometry":{"type":"Point","coordinates":[103.99339,1.364272]},"properties":{"name":"Changi Airport T1","details":"Departure Transit Hall East — near Gate D36","source":"changi","approx":true,"approxRadius":80,"level":"2","airside":true,"url":"https://www.changiairport.com/en/at-changi/facilities-and-services-directory/smoking-areas.html","updated":"2026-09-24"}},{"type":"Feature","id":"cag-t1-transit-2-departure-transit-hall-west-outdoor-deck-near-quick-bites-area","geometry":{"type":"Point","coordinates":[103.991081,1.362968]},"properties":{"name":"Changi Airport T1","details":"Departure Transit Hall West — Outdoor Deck near Quick Bites area","source":"changi","approx":true,"approxRadius":300,"level":"2","airside":true,"url":"https://www.changiairport.com/en/at-changi/facilities-and-services-directory/smoking-areas.html","updated":"2026-09-24"}},{"type":"Feature","id":"cag-t1-transit-3-departure-transit-hall-west-near-cactus-garden","geometry":{"type":"Point","coordinates":[103.991265,1.362892]},"properties":{"name":"Changi Airport T1","details":"Departure Transit Hall West — near Cactus Garden","source":"changi","approx":true,"approxRadius":300,"level":"3","airside":true,"url":"https://www.changiairport.com/en/at-changi/facilities-and-services-directory/smoking-areas.html","updated":"2026-09-24"}},{"type":"Feature","id":"cag-t1-transit-3-departure-transit-hall-central-near-snooze-lounge","geometry":{"type":"Point","coordinates":[103.991341,1.362708]},"properties":{"name":"Changi Airport T1","details":"Departure Transit Hall Central — near Snooze Lounge","source":"changi","approx":true,"approxRadius":300,"level":"3","airside":true,"url":"https://www.changiairport.com/en/at-changi/facilities-and-services-directory/smoking-areas.html","updated":"2026-09-24"}},{"type":"Feature","id":"cag-t1-public-1-arrival-kerbside-east-near-coach-stand","geometry":{"type":"Point","coordinates":[103.991265,1.362524]},"properties":{"name":"Changi Airport T1","details":"Arrival Kerbside, East — near Coach Stand","source":"changi","approx":true,"approxRadius":300,"level":"1","airside":false,"url":"https://www.changiairport.com/en/at-changi/facilities-and-services-directory/smoking-areas.html","updated":"2026-09-24"}},{"type":"Feature","id":"cag-t1-public-2-departure-kerbside-east-near-door-5","geometry":{"type":"Point","coordinates":[103.991081,1.362448]},"properties":{"name":"Changi Airport T1","details":"Departure Kerbside, East — near door 5","source":"changi","approx":true,"approxRadius":300,"level":"2","airside":false,"url":"https://www.changiairport.com/en/at-changi/facilities-and-services-directory/smoking-areas.html","updated":"2026-09-24"}},{"type":"Feature","id":"cag-t2-transit-2-departure-transit-hall-south-finger-pier-pavilion-lounge","geometry":{"type":"Point","coordinates":[103.990449,1.354055]},"properties":{"name":"Changi Airport T2","details":"Departure Transit Hall, South Finger Pier — Pavilion Lounge","source":"changi","approx":true,"approxRadius":300,"level":"2","airside":true,"url":"https://www.changiairport.com/en/at-changi/facilities-and-services-directory/smoking-areas.html","updated":"2026-09-24"}},{"type":"Feature","id":"cag-t2-transit-2-departure-transit-hall-south-next-to-gst-refund-counters","geometry":{"type":"Point","coordinates":[103.990632,1.353978]},"properties":{"name":"Changi Airport T2","details":"Departure Transit Hall South — next to GST refund counters","source":"changi","approx":true,"approxRadius":300,"level":"2","airside":true,"url":"https://www.changiairport.com/en/at-changi/facilities-and-services-directory/smoking-areas.html","updated":"2026-09-24"}},{"type":"Feature","id":"cag-t2-transit-3-departure-transit-hall-south-sunflower-garden","geometry":{"type":"Point","coordinates":[103.990709,1.353795]},"properties":{"name":"Changi Airport T2","details":"Departure Transit Hall South — Sunflower Garden","source":"changi","approx":true,"approxRadius":300,"level":"3","airside":true,"url":"https://www.changiairport.com/en/at-changi/facilities-and-services-directory/smoking-areas.html","updated":"2026-09-24"}},{"type":"Feature","id":"cag-t2-transit-2-departure-transit-hall-north-finger-pier-sanctuary-lounge","geometry":{"type":"Point","coordinates":[103.990632,1.353611]},"properties":{"name":"Changi Airport T2","details":"Departure Transit Hall, North Finger Pier — Sanctuary Lounge","source":"changi","approx":true,"approxRadius":300,"level":"2","airside":true,"url":"https://www.changiairport.com/en/at-changi/facilities-and-services-directory/smoking-areas.html","updated":"2026-09-24"}},{"type":"Feature","id":"cag-t2-transit-2-departure-transit-hall-north-next-to-children-s-play-area","geometry":{"type":"Point","coordinates":[103.990449,1.353535]},"properties":{"name":"Changi Airport T2","details":"Departure Transit Hall North — next to Children's Play Area","source":"changi","approx":true,"approxRadius":300,"level":"2","airside":true,"url":"https://www.changiairport.com/en/at-changi/facilities-and-services-directory/smoking-areas.html","updated":"2026-09-24"}},{"type":"Feature","id":"cag-t3-transit-2-departure-transit-hall-north-indoor-smoking-area-opposite-butterfly-garden","geometry":{"type":"Point","coordinates":[103.985077,1.354867]},"properties":{"name":"Changi Airport T3","details":"Departure Transit Hall North, Indoor Smoking Area — opposite Butterfly Garden","source":"changi","approx":true,"approxRadius":300,"level":"2","airside":true,"url":"https://www.changiairport.com/en/at-changi/facilities-and-services-directory/smoking-areas.html","updated":"2026-09-24"}},{"type":"Feature","id":"cag-t3-transit-2-departure-transit-hall-south-indoor-smoking-area-garden-terrace-near-gate-a1-to-a8-opposite-koi-pond","geometry":{"type":"Point","coordinates":[103.984857,1.354766]},"properties":{"name":"Changi Airport T3","details":"Departure Transit Hall South, Indoor Smoking Area — Garden Terrace near Gate A1 to A8, opposite Koi Pond","source":"changi","approx":true,"approxRadius":80,"level":"2","airside":true,"url":"https://www.changiairport.com/en/at-changi/facilities-and-services-directory/smoking-areas.html","updated":"2026-09-24"}},{"type":"Feature","id":"cag-t3-transit-2-departure-transit-hall-south-outdoor-smoking-area-next-to-gate-a21","geometry":{"type":"Point","coordinates":[103.983251,1.349322]},"properties":{"name":"Changi Airport T3","details":"Departure Transit Hall South, Outdoor Smoking Area — next to Gate A21","source":"changi","approx":true,"approxRadius":80,"level":"2","airside":true,"url":"https://www.changiairport.com/en/at-changi/facilities-and-services-directory/smoking-areas.html","updated":"2026-09-24"}},{"type":"Feature","id":"cag-t3-transit-2-departure-transit-hall-north-outdoor-smoking-area-opposite-gate-b10","geometry":{"type":"Point","coordinates":[103.988586,1.362283]},"properties":{"name":"Changi Airport T3","details":"Departure Transit Hall North, Outdoor Smoking Area — opposite Gate B10","source":"changi","approx":true,"approxRadius":80,"level":"2","airside":true,"url":"https://www.changiairport.com/en/at-changi/facilities-and-services-directory/smoking-areas.html","updated":"2026-09-24"}},{"type":"Feature","id":"cag-t4-transit-2-departure-transit-hall-north-near-gate-g4","geometry":{"type":"Point","coordinates":[103.983706,1.336372]},"properties":{"name":"Changi Airport T4","details":"Departure Transit Hall North — near Gate G4","source":"changi","approx":true,"approxRadius":80,"level":"2","airside":true,"url":"https://www.changiairport.com/en/at-changi/facilities-and-services-directory/smoking-areas.html","updated":"2026-09-24"}},{"type":"Feature","id":"cag-t4-transit-2-departure-transit-hall-north-near-heritage","geometry":{"type":"Point","coordinates":[103.984269,1.339046]},"properties":{"name":"Changi Airport T4","details":"Departure Transit Hall North — near Heritage","source":"changi","approx":true,"approxRadius":300,"level":"2","airside":true,"url":"https://www.changiairport.com/en/at-changi/facilities-and-services-directory/smoking-areas.html","updated":"2026-09-24"}},{"type":"Feature","id":"cag-t4-transit-2-departure-transit-hall-north-pier-near-gate-g16","geometry":{"type":"Point","coordinates":[103.985587,1.340806]},"properties":{"name":"Changi Airport T4","details":"Departure Transit Hall North Pier — near Gate G16","source":"changi","approx":true,"approxRadius":80,"level":"2","airside":true,"url":"https://www.changiairport.com/en/at-changi/facilities-and-services-directory/smoking-areas.html","updated":"2026-09-24"}},{"type":"Feature","id":"cag-t4-transit-2m-departure-transit-hall-north-near-lift-lobby-10-11","geometry":{"type":"Point","coordinates":[103.984453,1.33897]},"properties":{"name":"Changi Airport T4","details":"Departure Transit Hall North — near Lift Lobby 10/11","source":"changi","approx":true,"approxRadius":300,"level":"2M","airside":true,"url":"https://www.changiairport.com/en/at-changi/facilities-and-services-directory/smoking-areas.html","updated":"2026-09-24"}},{"type":"Feature","id":"cag-t1-public-2-departure-kerbside-west-near-door-1","geometry":{"type":"Point","coordinates":[103.990897,1.362524]},"properties":{"name":"Changi Airport T1","details":"Departure Kerbside, West — near door 1","source":"changi","approx":true,"approxRadius":300,"level":"2","airside":false,"url":"https://www.changiairport.com/en/at-changi/facilities-and-services-directory/smoking-areas.html","updated":"2026-09-24"}},{"type":"Feature","id":"cag-t2-public-1-arrival-kerbside-south-near-lift-lobby-13-14","geometry":{"type":"Point","coordinates":[103.990265,1.353611]},"properties":{"name":"Changi Airport T2","details":"Arrival Kerbside, South — near Lift Lobby 13/14","source":"changi","approx":true,"approxRadius":300,"level":"1","airside":false,"url":"https://www.changiairport.com/en/at-changi/facilities-and-services-directory/smoking-areas.html","updated":"2026-09-24"}},{"type":"Feature","id":"cag-t2-public-1-arrival-kerbside-north-near-lift-lobby-15-16","geometry":{"type":"Point","coordinates":[103.990189,1.353795]},"properties":{"name":"Changi Airport T2","details":"Arrival Kerbside, North — near Lift Lobby 15/16","source":"changi","approx":true,"approxRadius":300,"level":"1","airside":false,"url":"https://www.changiairport.com/en/at-changi/facilities-and-services-directory/smoking-areas.html","updated":"2026-09-24"}},{"type":"Feature","id":"cag-t2-public-2-departure-kerbside-north-near-lift-lobby-15-16","geometry":{"type":"Point","coordinates":[103.990265,1.353978]},"properties":{"name":"Changi Airport T2","details":"Departure Kerbside, North — near Lift Lobby 15/16","source":"changi","approx":true,"approxRadius":300,"level":"2","airside":false,"url":"https://www.changiairport.com/en/at-changi/facilities-and-services-directory/smoking-areas.html","updated":"2026-09-24"}},{"type":"Feature","id":"cag-t3-public-1-arrival-kerbside-south-near-coach-stand","geometry":{"type":"Point","coordinates":[103.985261,1.354791]},"properties":{"name":"Changi Airport T3","details":"Arrival Kerbside South — near Coach Stand","source":"changi","approx":true,"approxRadius":300,"level":"1","airside":false,"url":"https://www.changiairport.com/en/at-changi/facilities-and-services-directory/smoking-areas.html","updated":"2026-09-24"}},{"type":"Feature","id":"cag-t3-public-2-departure-kerbside-north-near-door-8","geometry":{"type":"Point","coordinates":[103.985337,1.354607]},"properties":{"name":"Changi Airport T3","details":"Departure Kerbside North — near door 8","source":"changi","approx":true,"approxRadius":300,"level":"2","airside":false,"url":"https://www.changiairport.com/en/at-changi/facilities-and-services-directory/smoking-areas.html","updated":"2026-09-24"}},{"type":"Feature","id":"cag-t3-public-2-departure-kerbside-north-near-door-1","geometry":{"type":"Point","coordinates":[103.985261,1.354423]},"properties":{"name":"Changi Airport T3","details":"Departure Kerbside North — near door 1","source":"changi","approx":true,"approxRadius":300,"level":"2","airside":false,"url":"https://www.changiairport.com/en/at-changi/facilities-and-services-directory/smoking-areas.html","updated":"2026-09-24"}},{"type":"Feature","id":"cag-t3-transit-2-departure-transit-hall-south-outdoor-smoking-area-garden-terrace-next-to-gate-a1-to-a8-and-koi-pond","geometry":{"type":"Point","coordinates":[103.984857,1.354766]},"properties":{"name":"Changi Airport T3","details":"Departure Transit Hall South, Outdoor Smoking Area — Garden Terrace next to Gate A1 to A8 and Koi Pond","source":"changi","approx":true,"approxRadius":80,"level":"2","airside":true,"url":"https://www.changiairport.com/en/at-changi/facilities-and-services-directory/smoking-areas.html","updated":"2026-09-24"}},{"type":"Feature","id":"cag-t3-public-1-arrival-kerbside-north-near-lift-lobby-pl12-13","geometry":{"type":"Point","coordinates":[103.985077,1.354347]},"properties":{"name":"Changi Airport T3","details":"Arrival Kerbside North — near Lift Lobby PL12/13","source":"changi","approx":true,"approxRadius":300,"level":"1","airside":false,"url":"https://www.changiairport.com/en/at-changi/facilities-and-services-directory/smoking-areas.html","updated":"2026-09-24"}},{"type":"Feature","id":"cag-t4-public-1-arrival-kerbside-north-near-coach-lounge","geometry":{"type":"Point","coordinates":[103.984529,1.338786]},"properties":{"name":"Changi Airport T4","details":"Arrival Kerbside North — near coach lounge","source":"changi","approx":true,"approxRadius":300,"level":"1","airside":false,"url":"https://www.changiairport.com/en/at-changi/facilities-and-services-directory/smoking-areas.html","updated":"2026-09-24"}},{"type":"Feature","id":"cag-t4-public-1-arrival-kerbside-south-near-door-4","geometry":{"type":"Point","coordinates":[103.984453,1.338602]},"properties":{"name":"Changi Airport T4","details":"Arrival Kerbside South — near door 4","source":"changi","approx":true,"approxRadius":300,"level":"1","airside":false,"url":"https://www.changiairport.com/en/at-changi/facilities-and-services-directory/smoking-areas.html","updated":"2026-09-24"}},{"type":"Feature","id":"cag-t4-public-2-departure-kerbside-south-near-door-6","geometry":{"type":"Point","coordinates":[103.984269,1.338526]},"properties":{"name":"Changi Airport T4","details":"Departure Kerbside South — near door 6","source":"changi","approx":true,"approxRadius":300,"level":"2","airside":false,"url":"https://www.changiairport.com/en/at-changi/facilities-and-services-directory/smoking-areas.html","updated":"2026-09-24"}},{"type":"Feature","id":"osm-node-369548445","geometry":{"type":"Point","coordinates":[103.886987,1.374034]},"properties":{"name":"McDonald's","details":"Enclosed smoking room","source":"osm_venue","approx":false,"venueKind":"fast_food","hours":"24/7","level":"0","url":"https://www.openstreetmap.org/node/369548445","updated":"2023-06-22"}},{"type":"Feature","id":"osm-node-615151178","geometry":{"type":"Point","coordinates":[103.829289,1.458821]},"properties":{"name":"Terror Club","details":"Outdoor smoking area","source":"osm_venue","approx":false,"venueKind":"restaurant","hours":null,"level":null,"url":"https://www.openstreetmap.org/node/615151178","updated":null}},{"type":"Feature","id":"osm-node-650025292","geometry":{"type":"Point","coordinates":[103.843931,1.289673]},"properties":{"name":"Brewerkz","details":"Separate smoking section","source":"osm_venue","approx":false,"venueKind":"pub","hours":null,"level":null,"url":"https://www.openstreetmap.org/node/650025292","updated":"2025-05-28"}},{"type":"Feature","id":"osm-node-965873727","geometry":{"type":"Point","coordinates":[103.83988,1.247269]},"properties":{"name":"eM By The Marina","details":"Separate smoking section","source":"osm_venue","approx":false,"venueKind":"bar","hours":null,"level":null,"url":"https://www.openstreetmap.org/node/965873727","updated":null}},{"type":"Feature","id":"osm-node-1950182530","geometry":{"type":"Point","coordinates":[103.844895,1.281809]},"properties":{"name":"Nanyang Old Coffee","details":"Smoking allowed, according to OSM","source":"osm_venue","approx":false,"venueKind":"cafe","hours":"Mo-Su 07:00-21:45","level":null,"url":"https://www.openstreetmap.org/node/1950182530","updated":null}},{"type":"Feature","id":"osm-node-2424592455","geometry":{"type":"Point","coordinates":[103.860933,1.284615]},"properties":{"name":"CÉ LA VI","details":"Smoking allowed, according to OSM","source":"osm_venue","approx":false,"venueKind":"bar","hours":null,"level":null,"url":"https://www.openstreetmap.org/node/2424592455","updated":null}},{"type":"Feature","id":"osm-node-3247461146","geometry":{"type":"Point","coordinates":[103.845183,1.341238]},"properties":{"name":"Hawker Centre","details":"Separate smoking section","source":"osm_venue","approx":false,"venueKind":"cafe","hours":null,"level":null,"url":"https://www.openstreetmap.org/node/3247461146","updated":null}},{"type":"Feature","id":"osm-node-3355457221","geometry":{"type":"Point","coordinates":[103.692818,1.342124]},"properties":{"name":"NTI Food Court","details":"Enclosed smoking room","source":"osm_venue","approx":false,"venueKind":"food_court","hours":"24/7","level":null,"url":"https://www.openstreetmap.org/node/3355457221","updated":null}},{"type":"Feature","id":"osm-node-3421881023","geometry":{"type":"Point","coordinates":[103.692809,1.34221]},"properties":{"name":"Good Fortune Seafood","details":"Enclosed smoking room","source":"osm_venue","approx":false,"venueKind":"restaurant","hours":"Mo-Su 16:00-02:00","level":null,"url":"https://www.openstreetmap.org/node/3421881023","updated":null}},{"type":"Feature","id":"osm-node-3527776022","geometry":{"type":"Point","coordinates":[103.826624,1.285771]},"properties":{"name":"Happy Hawkers","details":"Outdoor smoking area","source":"osm_venue","approx":false,"venueKind":"food_court","hours":null,"level":null,"url":"https://www.openstreetmap.org/node/3527776022","updated":null}},{"type":"Feature","id":"osm-node-3828293357","geometry":{"type":"Point","coordinates":[103.796416,1.310429]},"properties":{"name":"The Daily Scoop","details":"Outdoor smoking area","source":"osm_venue","approx":false,"venueKind":"fast_food","hours":"Mo-Th 11:00-22:00; Fr-Sa 11:00-22:30; Su14:00-22:00","level":null,"url":"https://www.openstreetmap.org/node/3828293357","updated":null}},{"type":"Feature","id":"osm-node-4302905836","geometry":{"type":"Point","coordinates":[103.879295,1.331771]},"properties":{"name":"Ibis Styles Singapore On Macpherson","details":"Enclosed smoking room","source":"osm_venue","approx":false,"venueKind":"hotel","hours":null,"level":null,"url":"https://www.openstreetmap.org/node/4302905836","updated":null}},{"type":"Feature","id":"osm-node-4400861587","geometry":{"type":"Point","coordinates":[103.810207,1.286947]},"properties":{"name":"Istimawa Nasi Padang","details":"Separate smoking section","source":"osm_venue","approx":false,"venueKind":"restaurant","hours":"10:00-15:00","level":null,"url":"https://www.openstreetmap.org/node/4400861587","updated":null}},{"type":"Feature","id":"osm-node-4430082850","geometry":{"type":"Point","coordinates":[103.841893,1.277008]},"properties":{"name":"Two Wings","details":"Separate smoking section","source":"osm_venue","approx":false,"venueKind":"restaurant","hours":"11:30-21:30","level":null,"url":"https://www.openstreetmap.org/node/4430082850","updated":null}},{"type":"Feature","id":"osm-node-4576711390","geometry":{"type":"Point","coordinates":[103.926361,1.333184]},"properties":{"name":"Bedok North Eating House","details":"Separate smoking section","source":"osm_venue","approx":false,"venueKind":"food_court","hours":null,"level":null,"url":"https://www.openstreetmap.org/node/4576711390","updated":null}},{"type":"Feature","id":"osm-node-4631679474","geometry":{"type":"Point","coordinates":[103.792584,1.302403]},"properties":{"name":"Nanyang Old Coffee","details":"Separate smoking section","source":"osm_venue","approx":false,"venueKind":"cafe","hours":null,"level":null,"url":"https://www.openstreetmap.org/node/4631679474","updated":null}},{"type":"Feature","id":"osm-node-4715290933","geometry":{"type":"Point","coordinates":[103.810323,1.323627]},"properties":{"name":"Starbucks","details":"Outdoor smoking area","source":"osm_venue","approx":false,"venueKind":"cafe","hours":null,"level":null,"url":"https://www.openstreetmap.org/node/4715290933","updated":null}},{"type":"Feature","id":"osm-node-4791338046","geometry":{"type":"Point","coordinates":[103.846536,1.340476]},"properties":{"name":"Coffee Shiop","details":"Enclosed smoking room","source":"osm_venue","approx":false,"venueKind":"restaurant","hours":null,"level":null,"url":"https://www.openstreetmap.org/node/4791338046","updated":null}},{"type":"Feature","id":"osm-node-5023357603","geometry":{"type":"Point","coordinates":[103.854003,1.298869]},"properties":{"name":"Fame Coffee","details":"Outdoor smoking area","source":"osm_venue","approx":false,"venueKind":"cafe","hours":"Mo-Th,Su 08:00-19:00; Fr-Sa 08:00-20:00","level":"0-1","url":"https://www.openstreetmap.org/node/5023357603","updated":"2025-03-22"}},{"type":"Feature","id":"osm-node-5070719036","geometry":{"type":"Point","coordinates":[103.815481,1.288396]},"properties":{"name":"Chang Cheng Foodcourt","details":"Outdoor smoking area","source":"osm_venue","approx":false,"venueKind":"food_court","hours":"24/7","level":null,"url":"https://www.openstreetmap.org/node/5070719036","updated":null}},{"type":"Feature","id":"osm-node-5403432638","geometry":{"type":"Point","coordinates":[103.841755,1.295094]},"properties":{"name":"Tusitala Books","details":"Enclosed smoking room","source":"osm_venue","approx":false,"venueKind":null,"hours":"Mo-Fr 09:00-19:00","level":null,"url":"https://www.openstreetmap.org/node/5403432638","updated":null}},{"type":"Feature","id":"osm-node-5474435679","geometry":{"type":"Point","coordinates":[103.765701,1.313155]},"properties":{"name":"VariNice Eating House","details":"Separate smoking section","source":"osm_venue","approx":false,"venueKind":"food_court","hours":null,"level":null,"url":"https://www.openstreetmap.org/node/5474435679","updated":null}},{"type":"Feature","id":"osm-node-5484076759","geometry":{"type":"Point","coordinates":[103.853328,1.300424]},"properties":{"name":"ChangCheng mi Wah","details":"","source":"osm_area","approx":false,"venueKind":null,"hours":null,"level":null,"url":"https://www.openstreetmap.org/node/5484076759","updated":null}},{"type":"Feature","id":"osm-node-5547694321","geometry":{"type":"Point","coordinates":[103.989885,1.355013]},"properties":{"name":"Smoking Room","details":"","source":"osm_area","approx":false,"venueKind":null,"hours":null,"level":null,"url":"https://www.openstreetmap.org/node/5547694321","updated":null}},{"type":"Feature","id":"osm-node-5547694421","geometry":{"type":"Point","coordinates":[103.989408,1.354048]},"properties":{"name":"Smoking Room","details":"","source":"osm_area","approx":false,"venueKind":null,"hours":null,"level":null,"url":"https://www.openstreetmap.org/node/5547694421","updated":null}},{"type":"Feature","id":"osm-node-5584059457","geometry":{"type":"Point","coordinates":[103.84486,1.299592]},"properties":{"name":"Smoking area","details":"","source":"osm_area","approx":false,"venueKind":null,"hours":"24/7","level":null,"url":"https://www.openstreetmap.org/node/5584059457","updated":null}},{"type":"Feature","id":"osm-node-5593553722","geometry":{"type":"Point","coordinates":[103.983388,1.339215]},"properties":{"name":"Smoking room","details":"","source":"osm_area","approx":false,"venueKind":null,"hours":null,"level":null,"url":"https://www.openstreetmap.org/node/5593553722","updated":null}},{"type":"Feature","id":"osm-node-5593558522","geometry":{"type":"Point","coordinates":[103.983493,1.336882]},"properties":{"name":"Smoking room","details":"","source":"osm_area","approx":false,"venueKind":null,"hours":null,"level":null,"url":"https://www.openstreetmap.org/node/5593558522","updated":null}},{"type":"Feature","id":"osm-node-5646689831","geometry":{"type":"Point","coordinates":[103.850553,1.350838]},"properties":{"name":"Gourmet Express","details":"Separate smoking section","source":"osm_venue","approx":false,"venueKind":"food_court","hours":"24/7","level":null,"url":"https://www.openstreetmap.org/node/5646689831","updated":null}},{"type":"Feature","id":"osm-node-5667042497","geometry":{"type":"Point","coordinates":[103.766855,1.315463]},"properties":{"name":"Smoking corner","details":"Enclosed smoking room","source":"osm_venue","approx":false,"venueKind":"restaurant","hours":null,"level":null,"url":"https://www.openstreetmap.org/node/5667042497","updated":null}},{"type":"Feature","id":"osm-node-5790566706","geometry":{"type":"Point","coordinates":[103.906235,1.30237]},"properties":{"name":"Marine Parade Food Centre","details":"Enclosed smoking room","source":"osm_venue","approx":false,"venueKind":"food_court","hours":null,"level":"0","url":"https://www.openstreetmap.org/node/5790566706","updated":"2023-02-19"}},{"type":"Feature","id":"osm-node-5912497109","geometry":{"type":"Point","coordinates":[103.955005,1.379983]},"properties":{"name":"D’Resort @ Downtown East","details":"Enclosed smoking room","source":"osm_venue","approx":false,"venueKind":"hotel","hours":null,"level":null,"url":"https://www.openstreetmap.org/node/5912497109","updated":null}},{"type":"Feature","id":"osm-node-5915054023","geometry":{"type":"Point","coordinates":[103.804832,1.282964]},"properties":{"name":"Smoking Point","details":"","source":"osm_area","approx":false,"venueKind":null,"hours":null,"level":null,"url":"https://www.openstreetmap.org/node/5915054023","updated":null}},{"type":"Feature","id":"osm-node-5974136144","geometry":{"type":"Point","coordinates":[103.867922,1.332789]},"properties":{"name":"McDonald's","details":"Outdoor smoking area","source":"osm_venue","approx":false,"venueKind":"fast_food","hours":"Mo-Su 07:00-23:00","level":null,"url":"https://www.openstreetmap.org/node/5974136144","updated":null}},{"type":"Feature","id":"osm-node-6011388038","geometry":{"type":"Point","coordinates":[103.886983,1.392927]},"properties":{"name":"Kwek Seng Huat Eating House","details":"","source":"osm_area","approx":false,"venueKind":null,"hours":null,"level":"0","url":"https://www.openstreetmap.org/node/6011388038","updated":null}},{"type":"Feature","id":"osm-node-6081027989","geometry":{"type":"Point","coordinates":[103.885353,1.373237]},"properties":{"name":"Yi Huat Cafe Pte Ltd","details":"Separate smoking section","source":"osm_venue","approx":false,"venueKind":"food_court","hours":null,"level":null,"url":"https://www.openstreetmap.org/node/6081027989","updated":null}},{"type":"Feature","id":"osm-node-6211090286","geometry":{"type":"Point","coordinates":[103.845529,1.283453]},"properties":{"name":"Galaxy Pods Capsule Hotel (Chinatown)","details":"Outdoor smoking area","source":"osm_venue","approx":false,"venueKind":"hostel","hours":"24/7","level":null,"url":"https://www.openstreetmap.org/node/6211090286","updated":null}},{"type":"Feature","id":"osm-node-6320479384","geometry":{"type":"Point","coordinates":[103.858268,1.283669]},"properties":{"name":"Smoking area","details":"","source":"osm_area","approx":false,"venueKind":null,"hours":null,"level":null,"url":"https://www.openstreetmap.org/node/6320479384","updated":null}},{"type":"Feature","id":"osm-node-6320481480","geometry":{"type":"Point","coordinates":[103.871423,1.279831]},"properties":{"name":"Smoking area","details":"","source":"osm_area","approx":false,"venueKind":null,"hours":null,"level":null,"url":"https://www.openstreetmap.org/node/6320481480","updated":null}},{"type":"Feature","id":"osm-node-6320482877","geometry":{"type":"Point","coordinates":[103.831769,1.305402]},"properties":{"name":"Smoking area","details":"","source":"osm_area","approx":false,"venueKind":null,"hours":null,"level":null,"url":"https://www.openstreetmap.org/node/6320482877","updated":null}},{"type":"Feature","id":"osm-node-6685648585","geometry":{"type":"Point","coordinates":[103.833747,1.303352]},"properties":{"name":"Smoking area","details":"","source":"osm_area","approx":false,"venueKind":null,"hours":"24/7","level":null,"url":"https://www.openstreetmap.org/node/6685648585","updated":null}},{"type":"Feature","id":"osm-node-6685648685","geometry":{"type":"Point","coordinates":[103.831454,1.30453]},"properties":{"name":"Smoking area","details":"","source":"osm_area","approx":false,"venueKind":null,"hours":"24/7","level":null,"url":"https://www.openstreetmap.org/node/6685648685","updated":null}},{"type":"Feature","id":"osm-node-6749816912","geometry":{"type":"Point","coordinates":[103.846075,1.327123]},"properties":{"name":"Smoking area","details":"ashtray","source":"osm_area","approx":false,"venueKind":null,"hours":null,"level":null,"url":"https://www.openstreetmap.org/node/6749816912","updated":null}},{"type":"Feature","id":"osm-node-7395590500","geometry":{"type":"Point","coordinates":[103.930395,1.333128]},"properties":{"name":"Bedok 511 Food Centre","details":"Separate smoking section","source":"osm_venue","approx":false,"venueKind":"food_court","hours":null,"level":null,"url":"https://www.openstreetmap.org/node/7395590500","updated":null}},{"type":"Feature","id":"osm-node-7813586609","geometry":{"type":"Point","coordinates":[103.846606,1.288448]},"properties":{"name":"Smoking area","details":"bench · ashtray","source":"osm_area","approx":false,"venueKind":null,"hours":null,"level":null,"url":"https://www.openstreetmap.org/node/7813586609","updated":null}},{"type":"Feature","id":"osm-node-8362862689","geometry":{"type":"Point","coordinates":[103.847246,1.327628]},"properties":{"name":"Smoking area","details":"ashtray · lit at night","source":"osm_area","approx":false,"venueKind":null,"hours":"24/7","level":null,"url":"https://www.openstreetmap.org/node/8362862689","updated":"2024-01-15"}},{"type":"Feature","id":"osm-node-8568762136","geometry":{"type":"Point","coordinates":[103.806098,1.266653]},"properties":{"name":"Smoking corner","details":"Smoking allowed, according to OSM","source":"osm_venue","approx":false,"venueKind":"bird_hide","hours":null,"level":null,"url":"https://www.openstreetmap.org/node/8568762136","updated":null}},{"type":"Feature","id":"osm-node-9671017340","geometry":{"type":"Point","coordinates":[103.848985,1.292611]},"properties":{"name":"The Masons Table","details":"Enclosed smoking room","source":"osm_venue","approx":false,"venueKind":"events_venue","hours":null,"level":"0","url":"https://www.openstreetmap.org/node/9671017340","updated":null}},{"type":"Feature","id":"osm-node-9858449357","geometry":{"type":"Point","coordinates":[103.852006,1.300362]},"properties":{"name":"Yuen Kee Dumpling","details":"Outdoor smoking area","source":"osm_venue","approx":false,"venueKind":"restaurant","hours":null,"level":"0","url":"https://www.openstreetmap.org/node/9858449357","updated":"2024-12-21"}},{"type":"Feature","id":"osm-node-10298236706","geometry":{"type":"Point","coordinates":[103.844294,1.357473]},"properties":{"name":"Kimly Coffeeshop","details":"Separate smoking section","source":"osm_venue","approx":false,"venueKind":"food_court","hours":null,"level":null,"url":"https://www.openstreetmap.org/node/10298236706","updated":"2023-01-01"}},{"type":"Feature","id":"osm-node-11663229534","geometry":{"type":"Point","coordinates":[103.852421,1.29398]},"properties":{"name":"Smoking area","details":"ashtray","source":"osm_area","approx":false,"venueKind":null,"hours":null,"level":"0","url":"https://www.openstreetmap.org/node/11663229534","updated":"2024-02-20"}},{"type":"Feature","id":"osm-node-11795260294","geometry":{"type":"Point","coordinates":[103.855737,1.310912]},"properties":{"name":"Smoking area","details":"","source":"osm_area","approx":false,"venueKind":null,"hours":null,"level":null,"url":"https://www.openstreetmap.org/node/11795260294","updated":null}},{"type":"Feature","id":"osm-node-11808601335","geometry":{"type":"Point","coordinates":[103.988856,1.356662]},"properties":{"name":"Smoking area","details":"","source":"osm_area","approx":false,"venueKind":null,"hours":null,"level":null,"url":"https://www.openstreetmap.org/node/11808601335","updated":null}},{"type":"Feature","id":"osm-node-12404396081","geometry":{"type":"Point","coordinates":[103.845173,1.280377]},"properties":{"name":"Habyt Kada at Maxwell","details":"Outdoor smoking area","source":"osm_venue","approx":false,"venueKind":"apartment","hours":"Mo-Su 10:00-19:00","level":"3","url":"https://www.openstreetmap.org/node/12404396081","updated":null}},{"type":"Feature","id":"osm-node-12493926918","geometry":{"type":"Point","coordinates":[103.986265,1.357525]},"properties":{"name":"Smoking area","details":"","source":"osm_area","approx":false,"venueKind":null,"hours":null,"level":null,"url":"https://www.openstreetmap.org/node/12493926918","updated":null}},{"type":"Feature","id":"osm-node-12790114335","geometry":{"type":"Point","coordinates":[103.992297,1.356036]},"properties":{"name":"gate E5","details":"","source":"osm_area","approx":false,"venueKind":null,"hours":null,"level":null,"url":"https://www.openstreetmap.org/node/12790114335","updated":null}},{"type":"Feature","id":"osm-node-13144041736","geometry":{"type":"Point","coordinates":[103.983296,1.339534]},"properties":{"name":"Smoking area","details":"","source":"osm_area","approx":false,"venueKind":null,"hours":null,"level":null,"url":"https://www.openstreetmap.org/node/13144041736","updated":null}},{"type":"Feature","id":"osm-way-41662296","geometry":{"type":"Point","coordinates":[103.839528,1.312097]},"properties":{"name":"Newton Food Centre","details":"Enclosed smoking room","source":"osm_venue","approx":false,"venueKind":"food_court","hours":"Mo-Su 00:00-02:00,12:00-24:00","level":null,"url":"https://www.openstreetmap.org/way/41662296","updated":null}},{"type":"Feature","id":"osm-way-46595145","geometry":{"type":"Point","coordinates":[103.857972,1.294526]},"properties":{"name":"Suntec Tower 5","details":"Outdoor smoking area","source":"osm_venue","approx":false,"venueKind":null,"hours":null,"level":null,"url":"https://www.openstreetmap.org/way/46595145","updated":null}},{"type":"Feature","id":"osm-way-46649287","geometry":{"type":"Point","coordinates":[103.801751,1.276489]},"properties":{"name":"HPE Alexandra Sales (HPAS)","details":"Separate smoking section","source":"osm_venue","approx":false,"venueKind":null,"hours":null,"level":null,"url":"https://www.openstreetmap.org/way/46649287","updated":null}},{"type":"Feature","id":"osm-way-94642393","geometry":{"type":"Point","coordinates":[103.690734,1.341485]},"properties":{"name":"Smoking corner","details":"Enclosed smoking room","source":"osm_venue","approx":false,"venueKind":null,"hours":null,"level":null,"url":"https://www.openstreetmap.org/way/94642393","updated":null}},{"type":"Feature","id":"osm-way-154249626","geometry":{"type":"Point","coordinates":[103.776969,1.443471]},"properties":{"name":"Marsiling Lane Cooked Food Centre","details":"Enclosed smoking room","source":"osm_venue","approx":false,"venueKind":"food_court","hours":"Mo-Sa 07:00-12:00","level":null,"url":"https://www.openstreetmap.org/way/154249626","updated":null}},{"type":"Feature","id":"osm-way-155953625","geometry":{"type":"Point","coordinates":[103.870613,1.327585]},"properties":{"name":"The Siemens Centre, Tower Block","details":"Enclosed smoking room","source":"osm_venue","approx":false,"venueKind":null,"hours":null,"level":null,"url":"https://www.openstreetmap.org/way/155953625","updated":null}},{"type":"Feature","id":"osm-way-159679953","geometry":{"type":"Point","coordinates":[103.854573,1.296716]},"properties":{"name":"Smoking corner","details":"Outdoor smoking area","source":"osm_venue","approx":false,"venueKind":null,"hours":null,"level":null,"url":"https://www.openstreetmap.org/way/159679953","updated":null}},{"type":"Feature","id":"osm-way-159814559","geometry":{"type":"Point","coordinates":[103.788964,1.298671]},"properties":{"name":"Fusionopolis 2A","details":"Outdoor smoking area","source":"osm_venue","approx":false,"venueKind":null,"hours":null,"level":null,"url":"https://www.openstreetmap.org/way/159814559","updated":null}},{"type":"Feature","id":"osm-way-164177180","geometry":{"type":"Point","coordinates":[103.855497,1.29584]},"properties":{"name":"Wework Beach Centre","details":"Outdoor smoking area","source":"osm_venue","approx":false,"venueKind":null,"hours":null,"level":null,"url":"https://www.openstreetmap.org/way/164177180","updated":null}},{"type":"Feature","id":"osm-way-172481806","geometry":{"type":"Point","coordinates":[103.800948,1.276781]},"properties":{"name":"HP Alexandra Manufacturing (HPAM)","details":"Separate smoking section","source":"osm_venue","approx":false,"venueKind":null,"hours":null,"level":null,"url":"https://www.openstreetmap.org/way/172481806","updated":null}},{"type":"Feature","id":"osm-way-172748958","geometry":{"type":"Point","coordinates":[103.839398,1.291451]},"properties":{"name":"SQ Collective","details":"Outdoor smoking area","source":"osm_venue","approx":false,"venueKind":null,"hours":null,"level":null,"url":"https://www.openstreetmap.org/way/172748958","updated":null}},{"type":"Feature","id":"osm-way-172775170","geometry":{"type":"Point","coordinates":[103.849015,1.287688]},"properties":{"name":"Galaxy Pods Capsule Hotel (Boat Quay)","details":"Outdoor smoking area","source":"osm_venue","approx":false,"venueKind":"hostel","hours":null,"level":null,"url":"https://www.openstreetmap.org/way/172775170","updated":null}},{"type":"Feature","id":"osm-way-173235507","geometry":{"type":"Point","coordinates":[103.955133,1.379692]},"properties":{"name":"D’Resort @ Downtown East","details":"Separate smoking section","source":"osm_venue","approx":false,"venueKind":"resort","hours":null,"level":null,"url":"https://www.openstreetmap.org/way/173235507","updated":null}},{"type":"Feature","id":"osm-way-184914358","geometry":{"type":"Point","coordinates":[103.851984,1.308436]},"properties":{"name":"Hilton Garden Inn Singapore Serangoon","details":"Enclosed smoking room","source":"osm_venue","approx":false,"venueKind":"hotel","hours":"24/7","level":null,"url":"https://www.openstreetmap.org/way/184914358","updated":"2025-11-23"}},{"type":"Feature","id":"osm-way-190945077","geometry":{"type":"Point","coordinates":[103.859104,1.300661]},"properties":{"name":"Smoking corner","details":"Outdoor smoking area","source":"osm_venue","approx":false,"venueKind":null,"hours":null,"level":null,"url":"https://www.openstreetmap.org/way/190945077","updated":null}},{"type":"Feature","id":"osm-way-201904037","geometry":{"type":"Point","coordinates":[103.89822,1.316727]},"properties":{"name":"Geylang Serai Food Market","details":"Enclosed smoking room","source":"osm_venue","approx":false,"venueKind":null,"hours":null,"level":null,"url":"https://www.openstreetmap.org/way/201904037","updated":null}},{"type":"Feature","id":"osm-way-228363265","geometry":{"type":"Point","coordinates":[103.786911,1.306818]},"properties":{"name":"Hui Oriental Rochester","details":"Outdoor smoking area","source":"osm_venue","approx":false,"venueKind":"restaurant","hours":"Mo-Su 10:00-22:00","level":null,"url":"https://www.openstreetmap.org/way/228363265","updated":null}},{"type":"Feature","id":"osm-way-261019253","geometry":{"type":"Point","coordinates":[103.849032,1.325588]},"properties":{"name":"Balestier Market","details":"Separate smoking section","source":"osm_venue","approx":false,"venueKind":"food_court","hours":"24/7","level":null,"url":"https://www.openstreetmap.org/way/261019253","updated":"2025-11-05"}},{"type":"Feature","id":"osm-way-261531462","geometry":{"type":"Point","coordinates":[103.854999,1.323066]},"properties":{"name":"Whampoa Makan Place","details":"Separate smoking section","source":"osm_venue","approx":false,"venueKind":"food_court","hours":"24/7","level":"0","url":"https://www.openstreetmap.org/way/261531462","updated":"2023-06-02"}},{"type":"Feature","id":"osm-way-372153152","geometry":{"type":"Point","coordinates":[103.841946,1.277033]},"properties":{"name":"Essen @ The Pinnacle","details":"Separate smoking section","source":"osm_venue","approx":false,"venueKind":"restaurant","hours":"10:30-23:00","level":null,"url":"https://www.openstreetmap.org/way/372153152","updated":null}},{"type":"Feature","id":"osm-way-440444769","geometry":{"type":"Point","coordinates":[103.805545,1.283174]},"properties":{"name":"HP","details":"Enclosed smoking room","source":"osm_venue","approx":false,"venueKind":null,"hours":null,"level":null,"url":"https://www.openstreetmap.org/way/440444769","updated":null}},{"type":"Feature","id":"osm-way-503910614","geometry":{"type":"Point","coordinates":[103.805021,1.282418]},"properties":{"name":"Hewlett-Packard Enterprise","details":"Enclosed smoking room","source":"osm_venue","approx":false,"venueKind":null,"hours":null,"level":null,"url":"https://www.openstreetmap.org/way/503910614","updated":null}},{"type":"Feature","id":"osm-way-569795940","geometry":{"type":"Point","coordinates":[103.813894,1.286893]},"properties":{"name":"Alicafe","details":"Smoking allowed, according to OSM","source":"osm_venue","approx":false,"venueKind":"cafe","hours":null,"level":null,"url":"https://www.openstreetmap.org/way/569795940","updated":null}},{"type":"Feature","id":"osm-way-668443001","geometry":{"type":"Point","coordinates":[103.775056,1.343529]},"properties":{"name":"OMMA Korean Charcoal BBQ - Bukit Timah","details":"Outdoor smoking area","source":"osm_venue","approx":false,"venueKind":"restaurant","hours":null,"level":null,"url":"https://www.openstreetmap.org/way/668443001","updated":null}},{"type":"Feature","id":"osm-way-744909664","geometry":{"type":"Point","coordinates":[103.990992,1.362356]},"properties":{"name":"Smoking area","details":"","source":"osm_area","approx":false,"venueKind":null,"hours":null,"level":"2","url":"https://www.openstreetmap.org/way/744909664","updated":null}},{"type":"Feature","id":"osm-way-981964001","geometry":{"type":"Point","coordinates":[103.792663,1.306217]},"properties":{"name":"Elementum","details":"Enclosed smoking room","source":"osm_venue","approx":false,"venueKind":null,"hours":null,"level":null,"url":"https://www.openstreetmap.org/way/981964001","updated":null}},{"type":"Feature","id":"osm-way-1451269066","geometry":{"type":"Point","coordinates":[103.851247,1.307032]},"properties":{"name":"Smoking Area","details":"","source":"osm_area","approx":false,"venueKind":null,"hours":null,"level":null,"url":"https://www.openstreetmap.org/way/1451269066","updated":null}},{"type":"Feature","id":"osm-way-1513448019","geometry":{"type":"Point","coordinates":[103.747966,1.400969]},"properties":{"name":"NTUC Foodfare","details":"Outdoor smoking area","source":"osm_venue","approx":false,"venueKind":"food_court","hours":"00:00-24:00","level":null,"url":"https://www.openstreetmap.org/way/1513448019","updated":null}},{"type":"Feature","id":"osm-relation-14904627","geometry":{"type":"Point","coordinates":[103.844827,1.386257]},"properties":{"name":"Legacy Performance Private Limited","details":"Separate smoking section","source":"osm_venue","approx":false,"venueKind":null,"hours":null,"level":null,"url":"https://www.openstreetmap.org/relation/14904627","updated":null}}]}